USA 119                 
1 23893U 96029A   26068.41677233  .00001640  00000+0  29026-3 0  9998
2 23893  63.3196  93.1190 0846389  47.6314 319.3281 13.45886981 91843
STARLINK-31786          
1 59771U 24091U   26068.30985901 -.00000558  00000+0 -67258-5 0  9994
2 59771  53.1616  28.8329 0001242  65.6033 294.5097 15.30193136102941
